start=new Date('2022-09-13T00:00:00.000Z').valueOf();
sats=[{"TLE_LINE2":"2 47731  53.0540 170.3088 0001600  62.1257 297.9894 15.06392821 85736","REF_FRAME":"TEME","DECAY_DATE":null,"OBJECT_ID":"2021-017K","EPHEMERIS_TYPE":"0","SITE":"AFETR","ELEMENT_SET_NO":"999","PERIAPSIS":"546.128","CENTER_NAME":"EARTH","REV_AT_EPOCH":"8573","SEMIMAJOR_AXIS":"6925.371","APOAPSIS":"548.344","OBJECT_TYPE":"PAYLOAD","LAUNCH_DATE":"2021-03-04","BSTAR":"-0.00002472900000","RCS_SIZE":"LARGE","TLE_LINE1":"1 47731U 21017K   22255.80700290 -.00000650  00000-0 -24729-4 0  9996","NORAD_CAT_ID":"47731","FILE":"3570509","PERIOD":"95.593","MEAN_MOTION_DOT":"-0.00000650","ARG_OF_PERICENTER":"62.1257","MEAN_ANOMALY":"297.9894","EPOCH":"2022-09-12T19:22:05.050560","RA_OF_ASC_NODE":"170.3088","CLASSIFICATION_TYPE":"U","ECCENTRICITY":"0.00016000","MEAN_MOTION":"15.06392821","OBJECT_NAME":"STARLINK-2141","COUNTRY_CODE":"US","MEAN_MOTION_DDOT":"0.0000000000000","TIME_SYSTEM":"UTC","GP_ID":"212431442","MEAN_ELEMENT_THEORY":"SGP4","INCLINATION":"53.0540"},{"RA_OF_ASC_NODE":"86.5659","EPOCH":"2022-09-12T13:56:21.913152","MEAN_MOTION_DOT":"0.00000049","PERIOD":"95.592","MEAN_ANOMALY":"271.9853","ARG_OF_PERICENTER":"88.1298","TIME_SYSTEM":"UTC","MEAN_MOTION_DDOT":"0.0000000000000","MEAN_ELEMENT_THEORY":"SGP4","INCLINATION":"53.0551","GP_ID":"212429718","MEAN_MOTION":"15.06402331","ECCENTRICITY":"0.00014200","CLASSIFICATION_TYPE":"U","COUNTRY_CODE":"US","OBJECT_NAME":"STARLINK-2142","PERIAPSIS":"546.223","ELEMENT_SET_NO":"999","SITE":"AFETR","SEMIMAJOR_AXIS":"6925.341","CENTER_NAME":"EARTH","REV_AT_EPOCH":"8688","REF_FRAME":"TEME","DECAY_DATE":null,"TLE_LINE2":"2 47732  53.0551  86.5659 0001420  88.1298 271.9853 15.06402331 86886","EPHEMERIS_TYPE":"0","OBJECT_ID":"2021-017L","TLE_LINE1":"1 47732U 21017L   22255.58080918  .00000049  00000-0  22200-4 0  9992","RCS_SIZE":"LARGE","NORAD_CAT_ID":"47732","FILE":"3570509","APOAPSIS":"548.190","BSTAR":"0.00002220000000","OBJECT_TYPE":"PAYLOAD","LAUNCH_DATE":"2021-03-04"},{"MEAN_ELEMENT_THEORY":"SGP4","INCLINATION":"53.0552","GP_ID":"212429968","TIME_SYSTEM":"UTC","MEAN_MOTION_DDOT":"0.0000000000000","COUNTRY_CODE":"US","OBJECT_NAME":"STARLINK-2143","MEAN_MOTION":"15.06408688","ECCENTRICITY":"0.00016970","CLASSIFICATION_TYPE":"U","RA_OF_ASC_NODE":"180.3572","EPOCH":"2022-09-12T19:04:49.707264","MEAN_ANOMALY":"286.2015","ARG_OF_PERICENTER":"73.9161","MEAN_MOTION_DOT":"0.00005824","PERIOD":"95.592","FILE":"3570509","NORAD_CAT_ID":"47733","TLE_LINE1":"1 47733U 21017M   22255.79501976  .00005824  00000-0  40946-3 0  9990","RCS_SIZE":"LARGE","BSTAR":"0.00040946000000","LAUNCH_DATE":"2021-03-04","OBJECT_TYPE":"PAYLOAD","APOAPSIS":"548.362","SEMIMAJOR_AXIS":"6925.322","CENTER_NAME":"EARTH","REV_AT_EPOCH":"8563","PERIAPSIS":"546.012","ELEMENT_SET_NO":"999","SITE":"AFETR","OBJECT_ID":"2021-017M","EPHEMERIS_TYPE":"0","DECAY_DATE":null,"REF_FRAME":"TEME","TLE_LINE2":"2 47733  53.0552 180.3572 0001697  73.9161 286.2015 15.06408688 85634"},{"FILE":"3570509","NORAD_CAT_ID":"47734","RCS_SIZE":"LARGE","TLE_LINE1":"1 47734U 21017N   22255.54898940 -.00000052  00000-0  15430-4 0  9994","BSTAR":"0.00001543000000","LAUNCH_DATE":"2021-03-04","OBJECT_TYPE":"PAYLOAD","APOAPSIS":"548.214","CENTER_NAME":"EARTH","REV_AT_EPOCH":"8570","SEMIMAJOR_AXIS":"6925.369","ELEMENT_SET_NO":"999","SITE":"AFETR","PERIAPSIS":"546.253","EPHEMERIS_TYPE":"0","OBJECT_ID":"2021-017N","DECAY_DATE":null,"REF_FRAME":"TEME","TLE_LINE2":"2 47734  53.0546 171.4644 0001416  82.0588 278.0562 15.06393474 85702","MEAN_ELEMENT_THEORY":"SGP4","INCLINATION":"53.0546","GP_ID":"212430712","TIME_SYSTEM":"UTC","MEAN_MOTION_DDOT":"0.0000000000000","COUNTRY_CODE":"US","OBJECT_NAME":"STARLINK-2144","ECCENTRICITY":"0.00014160","MEAN_MOTION":"15.06393474","CLASSIFICATION_TYPE":"U","RA_OF_ASC_NODE":"171.4644","EPOCH":"2022-09-12T13:10:32.684160","MEAN_ANOMALY":"278.0562","ARG_OF_PERICENTER":"82.0588","PERIOD":"95.593","MEAN_MOTION_DOT":"-0.00000052"},{"RA_OF_ASC_NODE":"96.5586","EPOCH":"2022-09-12T13:33:47.329632","PERIOD":"95.592","MEAN_MOTION_DOT":"0.00001459","MEAN_ANOMALY":"283.2371","ARG_OF_PERICENTER":"76.8802","TIME_SYSTEM":"UTC","MEAN_MOTION_DDOT":"0.0000000000000","INCLINATION":"53.0535","MEAN_ELEMENT_THEORY":"SGP4","GP_ID":"212430942","ECCENTRICITY":"0.00016530","MEAN_MOTION":"15.06403711","CLASSIFICATION_TYPE":"U","COUNTRY_CODE":"US","OBJECT_NAME":"STARLINK-2146","ELEMENT_SET_NO":"999","SITE":"AFETR","PERIAPSIS":"546.057","REV_AT_EPOCH":"8673","CENTER_NAME":"EARTH","SEMIMAJOR_AXIS":"6925.337","DECAY_DATE":null,"REF_FRAME":"TEME","TLE_LINE2":"2 47735  53.0535  96.5586 0001653  76.8802 283.2371 15.06403711 86732","EPHEMERIS_TYPE":"0","OBJECT_ID":"2021-017P","RCS_SIZE":"LARGE","TLE_LINE1":"1 47735U 21017P   22255.56513113  .00001459  00000-0  11680-3 0  9996","NORAD_CAT_ID":"47735","FILE":"3570509","APOAPSIS":"548.347","BSTAR":"0.00011680000000","LAUNCH_DATE":"2021-03-04","OBJECT_TYPE":"PAYLOAD"},{"FILE":"3570509","NORAD_CAT_ID":"47736","RCS_SIZE":"LARGE","TLE_LINE1":"1 47736U 21017Q   22255.78211851  .00000582  00000-0  57992-4 0  9998","LAUNCH_DATE":"2021-03-04","OBJECT_TYPE":"PAYLOAD","BSTAR":"0.00005799200000","APOAPSIS":"548.239","CENTER_NAME":"EARTH","REV_AT_EPOCH":"8591","SEMIMAJOR_AXIS":"6925.336","SITE":"AFETR","ELEMENT_SET_NO":"999","PERIAPSIS":"546.163","OBJECT_ID":"2021-017Q","EPHEMERIS_TYPE":"0","TLE_LINE2":"2 47736  53.0543 160.4200 0001499  50.6700 309.4422 15.06404157 85913","REF_FRAME":"TEME","DECAY_DATE":null,"GP_ID":"212430219","INCLINATION":"53.0543","MEAN_ELEMENT_THEORY":"SGP4","MEAN_MOTION_DDOT":"0.0000000000000","TIME_SYSTEM":"UTC","OBJECT_NAME":"STARLINK-2147","COUNTRY_CODE":"US","CLASSIFICATION_TYPE":"U","ECCENTRICITY":"0.00014990","MEAN_MOTION":"15.06404157","EPOCH":"2022-09-12T18:46:15.039264","RA_OF_ASC_NODE":"160.4200","ARG_OF_PERICENTER":"50.6700","MEAN_ANOMALY":"309.4422","PERIOD":"95.592","MEAN_MOTION_DOT":"0.00000582"},{"DECAY_DATE":null,"REF_FRAME":"TEME","TLE_LINE2":"2 47737  53.0524  63.1453 0001327  64.3681 295.7456 15.32086297 87255","EPHEMERIS_TYPE":"0","OBJECT_ID":"2021-017R","SITE":"AFETR","ELEMENT_SET_NO":"999","PERIAPSIS":"468.682","REV_AT_EPOCH":"8725","CENTER_NAME":"EARTH","SEMIMAJOR_AXIS":"6847.726","APOAPSIS":"470.499","BSTAR":"0.00050861000000","LAUNCH_DATE":"2021-03-04","OBJECT_TYPE":"PAYLOAD","RCS_SIZE":"LARGE","TLE_LINE1":"1 47737U 21017R   22255.46248694  .00015642  00000-0  50861-3 0  9999","NORAD_CAT_ID":"47737","FILE":"3570189","PERIOD":"93.989","MEAN_MOTION_DOT":"0.00015642","MEAN_ANOMALY":"295.7456","ARG_OF_PERICENTER":"64.3681","RA_OF_ASC_NODE":"63.1453","EPOCH":"2022-09-12T11:05:58.871616","ECCENTRICITY":"0.00013270","MEAN_MOTION":"15.32086297","CLASSIFICATION_TYPE":"U","COUNTRY_CODE":"US","OBJECT_NAME":"STARLINK-2148","TIME_SYSTEM":"UTC","MEAN_MOTION_DDOT":"0.0000000000000","MEAN_ELEMENT_THEORY":"SGP4","INCLINATION":"53.0524","GP_ID":"212399119"},{"RA_OF_ASC_NODE":"160.7908","EPOCH":"2022-09-12T18:09:08.500896","PERIOD":"95.592","MEAN_MOTION_DOT":"0.00000713","MEAN_ANOMALY":"303.3766","ARG_OF_PERICENTER":"56.7369","TIME_SYSTEM":"UTC","MEAN_MOTION_DDOT":"0.0000000000000","INCLINATION":"53.0541","MEAN_ELEMENT_THEORY":"SGP4","GP_ID":"212431213","ECCENTRICITY":"0.00015320","MEAN_MOTION":"15.06402519","CLASSIFICATION_TYPE":"U","COUNTRY_CODE":"US","OBJECT_NAME":"STARLINK-2149","ELEMENT_SET_NO":"999","SITE":"AFETR","PERIAPSIS":"546.145","CENTER_NAME":"EARTH","REV_AT_EPOCH":"8590","SEMIMAJOR_AXIS":"6925.341","REF_FRAME":"TEME","DECAY_DATE":null,"TLE_LINE2":"2 47738  53.0541 160.7908 0001532  56.7369 303.3766 15.06402519 85900","EPHEMERIS_TYPE":"0","OBJECT_ID":"2021-017S","RCS_SIZE":"LARGE","TLE_LINE1":"1 47738U 21017S   22255.75634839  .00000713  00000-0  66737-4 0  9995","NORAD_CAT_ID":"47738","FILE":"3570509","APOAPSIS":"548.267","BSTAR":"0.00006673700000","OBJECT_TYPE":"PAYLOAD","LAUNCH_DATE":"2021-03-04"},{"SITE":"AFETR","ELEMENT_SET_NO":"999","PERIAPSIS":"546.225","REV_AT_EPOCH":"8556","CENTER_NAME":"EARTH","SEMIMAJOR_AXIS":"6925.353","TLE_LINE2":"2 47739  53.0554 185.4428 0001433  80.2527 279.8624 15.06398685 85564","DECAY_DATE":null,"REF_FRAME":"TEME","EPHEMERIS_TYPE":"0","OBJECT_ID":"2021-017T","RCS_SIZE":"LARGE","TLE_LINE1":"1 47739U 21017T   22255.77797143  .00001010  00000-0  86698-4 0  9995","FILE":"3570509","NORAD_CAT_ID":"47739","APOAPSIS":"548.210","OBJECT_TYPE":"PAYLOAD","LAUNCH_DATE":"2021-03-04","BSTAR":"0.00008669800000","EPOCH":"2022-09-12T18:40:16.731552","RA_OF_ASC_NODE":"185.4428","PERIOD":"95.592","MEAN_MOTION_DOT":"0.00001010","ARG_OF_PERICENTER":"80.2527","MEAN_ANOMALY":"279.8624","MEAN_MOTION_DDOT":"0.0000000000000","TIME_SYSTEM":"UTC","GP_ID":"212431443","INCLINATION":"53.0554","MEAN_ELEMENT_THEORY":"SGP4","CLASSIFICATION_TYPE":"U","ECCENTRICITY":"0.00014330","MEAN_MOTION":"15.06398685","OBJECT_NAME":"STARLINK-2150","COUNTRY_CODE":"US"},{"APOAPSIS":"548.241","BSTAR":"0.00012521000000","OBJECT_TYPE":"PAYLOAD","LAUNCH_DATE":"2021-03-04","TLE_LINE1":"1 47740U 21017U   22255.29465179  .00001584  00000-0  12521-3 0  9994","RCS_SIZE":"LARGE","NORAD_CAT_ID":"47740","FILE":"3570189","DECAY_DATE":null,"REF_FRAME":"TEME","TLE_LINE2":"2 47740  53.0544 172.6081 0001498  74.2458 285.8696 15.06403368 85690","OBJECT_ID":"2021-017U","EPHEMERIS_TYPE":"0","PERIAPSIS":"546.166","ELEMENT_SET_NO":"999","SITE":"AFETR","SEMIMAJOR_AXIS":"6925.338","REV_AT_EPOCH":"8569","CENTER_NAME":"EARTH","MEAN_MOTION":"15.06403368","ECCENTRICITY":"0.00014980","CLASSIFICATION_TYPE":"U","COUNTRY_CODE":"US","OBJECT_NAME":"STARLINK-2152","TIME_SYSTEM":"UTC","MEAN_MOTION_DDOT":"0.0000000000000","MEAN_ELEMENT_THEORY":"SGP4","INCLINATION":"53.0544","GP_ID":"212398869","MEAN_MOTION_DOT":"0.00001584","PERIOD":"95.592","MEAN_ANOMALY":"285.8696","ARG_OF_PERICENTER":"74.2458","RA_OF_ASC_NODE":"172.6081","EPOCH":"2022-09-12T07:04:17.914656"}];
